STARLINK-36210          
1 67174U 25303M   26068.03496551  .00035797  00000+0  13035-2 0  9997
2 67174  43.0036 314.5291 0002237 258.7936 101.2664 15.27594454 12630
KUIPER-00209            
1 67776U 26030N   26068.61786546  .00035298  00000+0  11963-2 0  9997
2 67776  51.8838 220.0775 0012191  59.1967 301.0215 15.30161950  5077
